FENGYUN 1C DEB          
1 30623U 99025ANE 17345.78441125  .00000168  00000-0  28282-3 0  9991
2 30623  98.8253 175.4715 0409630  99.7672 327.7319 13.27162918524242
